IRIDIUM 102
1 41920U 17003D   19304.22936840  .00000095  00000-0  26950-4 0  9998
2 41920  86.4016  20.0936 0002429  95.9482 264.1990 14.34219401146288
IRIDIUM 124
1 42810U 17039H   19304.36614032  .00000114  00000-0  27811-4 0  9996
2 42810  86.4546 221.9970 0001760  76.0238 284.1158 14.43278365125943
IRIDIUM 130
1 43073U 17083D   19304.42500493  .00000083  00000-0  22422-4 0  9997
2 43073  86.3978 253.6469 0002347  85.7096 274.4368 14.34218730 97144
IRIDIUM 140
1 43252U 18030D   19304.37717429  .00000104  00000-0  30180-4 0  9996
2 43252  86.4020 222.0557 0001179  55.9242 304.2066 14.34219273 83217
IRIDIUM 38
1 25043U 97069E   19304.30548044  .00000139  00000-0  40949-4 0  9993
2 25043  86.4006  16.0236 0001998  54.2852 305.8531 14.36167008151032
IRIDIUM 45
1 25104U 97082A   19304.45922718  .00000631  00000-0  46373-4 0  9990
2 25104  86.3779 277.3015 0216257 137.3903 224.4329 14.84085953145573
IRIDIUM 4
1 24796U 97020E   19304.48398403  .00000081  00000-0  21304-4 0  9995
2 24796  86.3919 315.1502 0002254  90.7417 269.4037 14.35222023177554
IRIDIUM 96
1 27376U 02005E   19304.45873065  .00061793 -38930-6  34965-3 0  9993
2 27376  86.3630 264.4993 0168702  73.7529 288.2221 15.61370372947300
IRIDIUM 117
1 42808U 17039F   19304.43476786  .00000075  00000-0  19768-4 0  9991
2 42808  86.3928 285.1770 0001978  74.6657 285.4757 14.34218358123014
IRIDIUM 73
1 25344U 98032C   19304.25427483  .00000130  00000-0  28808-4 0  9996
2 25344  86.4483 196.8819 0002650  77.6053 282.5448 14.49197474132971
IRIDIUM 108
1 41924U 17003H   19304.48599843  .00000089  00000-0  24711-4 0  9994
2 41924  86.3980 348.4132 0001811  93.4617 266.6786 14.34216071148162
IRIDIUM 2
1 25527U 98066A   19304.40747479  .00001189  00000-0  56141-4 0  9999
2 25527  85.5316 240.1546 0010438 131.2578 228.9563 15.18244840149237
IRIDIUM 82
1 25467U 98051A   19304.50203271  .00000878  00000-0  62950-4 0  9993
2 25467  86.4006 344.9878 0179715 180.1910 179.9282 14.90548026115838
IRIDIUM 921
1 24873U 97034E   19304.22811222  .00000936  00000-0  51610-4 0  9999
2 24873  86.3963  16.2087 0009769  69.0671 291.1612 15.12546231218952
IRIDIUM 920
1 24871U 97034C   19304.19588627  .00000125  00000-0  33718-4 0  9992
2 24871  86.4004   1.3981 0012293  21.8965 338.2756 14.39611010170936
IRIDIUM 51
1 25262U 98018A   19304.49921345  .00000710  00000-0  47509-4 0  9994
2 25262  86.3947 289.9666 0207715 134.4353 227.4083 14.88708359139188
IRIDIUM 28
1 24948U 97051E   19304.50356498  .00000076  00000-0  19382-4 0  9996
2 24948  86.3925 283.2073 0002044  80.5053 279.6375 14.35678047158871
IRIDIUM 111
1 41926U 17003K   19304.29281010  .00000098  00000-0  27922-4 0  9996
2 41926  86.4014  20.0380 0002325  86.4776 273.6686 14.34217070146334
DUMMY MASS 1
1 24925U 97048A   19303.76886594 +.00000081 +00000-0 +61835-5 0  9996
2 24925 086.3382 004.3168 0005716 203.9690 156.1269 14.85212537199810
IRIDIUM 112
1 41925U 17003J   19304.30547593  .00000108  00000-0  31342-4 0  9991
2 41925  86.4013  20.0147 0002324 106.6820 253.4631 14.34220489146319
IRIDIUM 24
1 25105U 97082B   19304.32731354  .00000115  00000-0  30204-4 0  9994
2 25105  86.3956 229.5700 0012400  22.9393 337.2357 14.39996156147490
IRIDIUM 914
1 24836U 97030A   19304.51369317  .00000105  00000-0  27668-4 0  9993
2 24836  86.3919 329.5598 0003598 115.9317 244.2252 14.38896300173514
IRIDIUM 36
1 24967U 97056C   19304.47487450  .00000103  00000-0  28708-4 0  9994
2 24967  86.3934 314.9154 0002060  96.4393 263.7039 14.35740079157151
IRIDIUM 22
1 24907U 97043E   19304.34183235  .00000093  00000-0  26104-4 0  9990
2 24907  86.3966 254.0510 0002272  88.3230 271.8226 14.34315642161982
IRIDIUM 17
1 24870U 97034B   19304.27714132  .00000129  00000-0  37519-4 0  9999
2 24870  86.4007  17.2439 0000596 131.1195 229.0053 14.35901709168459
IRIDIUM 69
1 25319U 98026A   19304.41379284  .00000050  00000-0  97258-5 0  9991
2 25319  86.4013 241.2438 0001573  22.3087 337.8180 14.38811977127588
IRIDIUM 7
1 24793U 97020B   19304.52115503  .00000095  00000-0  26907-4 0  9994
2 24793  86.3929 316.8801 0002280  87.5908 272.5549 14.34298224177378
IRIDIUM 105
1 41921U 17003E   19304.20047648  .00000098  00000-0  27894-4 0  9997
2 41921  86.3987 348.4959 0001521  59.6030 300.5316 14.34216059148134
IRIDIUM 104
1 41922U 17003F   19304.31183409  .00000105  00000-0  30487-4 0  9997
2 41922  86.4017  20.0649 0001925  85.8802 274.2614 14.34218550146285
IRIDIUM 109
1 41919U 17003C   19304.33087101  .00000110  00000-0  32310-4 0  9990
2 41919  86.4017  20.0757 0002221  92.0464 268.0986 14.34219194146238
IRIDIUM 57
1 25273U 98019B   19304.48285392  .00000092  00000-0  25618-4 0  9991
2 25273  86.3922 285.1846 0002253  91.2184 268.9270 14.34359082130245
IRIDIUM 97
1 27450U 02031A   19304.52044981  .00000009  00000-0 -35731-5 0  9998
2 27450  86.4191 316.8814 0002140  95.9685 264.1757 14.38539365914664
IRIDIUM 5
1 24795U 97020D   19304.44831216  .00000309  00000-0  30972-4 0  9998
2 24795  86.3928 294.1437 0138368 195.3756 164.3244 14.80158404180693
IRIDIUM 16
1 24841U 97030F   19304.49828519  .00000091  00000-0  24202-4 0  9995
2 24841  86.4048 347.1876 0002210  26.4429 333.6880 14.36850905171976
IRIDIUM 103
1 41918U 17003B   19304.32451720  .00000106  00000-0  30801-4 0  9998
2 41918  86.4016  20.0590 0002459  85.4441 274.7035 14.34216549146257
IRIDIUM 39
1 25042U 97069D   19304.32343110  .00000113  00000-0  25832-4 0  9997
2 25042  86.3960   9.6636 0017330 317.4121  42.5737 14.46338792151901
IRIDIUM 123
1 42804U 17039B   19304.45377912  .00000089  00000-0  24831-4 0  9992
2 42804  86.3929 285.1822 0002445  86.3844 273.7631 14.34215628122980
IRIDIUM 44
1 25078U 97077B   19304.28904638  .00000115  00000-0  31452-4 0  9995
2 25078  86.3998   7.1409 0001031  33.7316 326.3947 14.38271873148119
IRIDIUM 114
1 41923U 17003G   19304.31815716  .00000100  00000-0  28782-4 0  9991
2 41923  86.4017  20.0525 0002020 102.9688 257.1733 14.34214625146280
IRIDIUM 71
1 25320U 98026B   19304.36683390  .00000128  00000-0  34810-4 0  9993
2 25320  86.4005 236.7392 0003532  51.3194 308.8320 14.39216163128040
IRIDIUM 911
1 24842U 97030G   19304.51587191  .00000135  00000-0  32599-4 0  9994
2 24842  86.4475 347.4489 0016696  93.9913 266.3198 14.45125137178056
IRIDIUM 33
1 24946U 97051C   19304.44543855  .00000075  00000-0  19847-4 0  9997
2 24946  86.3834 284.1348 0006152 311.8880  48.1790 14.33662519158140
IRIDIUM 26
1 24903U 97043A   19304.43576454  .00000126  00000-0  37118-4 0  9999
2 24903  86.3967 252.0627 0002217  81.0700 279.0747 14.35375900162227
IRIDIUM 175
1 43928U 19002G   19304.48292606  .00000093  00000-0  10840-4 0  9991
2 43928  86.6048 285.1059 0002393  64.4043 295.7421 14.72252298 43085
